MULTIPOLYGON(((-1.2772143012535 44.629205564803, -1.2718944116736 44.539287128916, -1.2600151558246 44.539520481307, -1.2591540387625 44.539547405636, -1.2589792070545 44.539942943121, -1.2588884662202 44.54008631371, -1.2589058285268 44.54037044228, -1.2586701457194 44.540553476969, -1.2586896498252 44.540872672028, -1.2584025315328 44.541059115539, -1.2582628689186 44.54120581627, -1.258129632809 44.541457716332, -1.2579461643807 44.541712086878, -1.2578107286093 44.54192802089, -1.2576732595416 44.542110686507, -1.2574931863325 44.542400083495, -1.257316138108 44.542759652461, -1.2571360611592 44.543049048831, -1.2570072094998 44.543372878728, -1.2569251903759 44.543659211034, -1.2567918880772 44.543910210213, -1.2565594301034 44.54416700921, -1.2563376224167 44.544598241083, -1.2561606703395 44.544959606305, -1.2558365651318 44.545324666124, -1.255374806239 44.545869690223, -1.2546290150452 44.546673116694, -1.2539816456271 44.547438332117, -1.2533312370931 44.548133371444, -1.2526890506037 44.549004717149, -1.2513278279436 44.550252521837, -1.2496771572862 44.55165076538, -1.248297292121 44.552615342693, -1.2473233795347 44.553709590248, -1.2465786913557 44.554513822547, -1.2450205567768 44.556442409857, -1.2443896811495 44.557151195774, -1.2439511755614 44.557646796355, -1.2435414711862 44.558056819209, -1.2428861730682 44.558716808863, -1.2424677025489 44.559045123083, -1.2408626138168 44.560537293715, -1.2400923804643 44.561462984177, -1.2398080535335 44.561967286075, -1.2394883461143 44.562345667783, -1.2393122236337 44.562557434492, -1.2391052057647 44.562799888797, -1.2390518365466 44.562937574533, -1.2388139227291 44.563169277355, -1.2385321465276 44.563674396815, -1.2380764241505 44.564282210267, -1.2379516921718 44.564448236666, -1.2376533360302 44.564908826328, -1.2375669881005 44.565063750648, -1.2373702292304 44.565413082585, -1.2371375459101 44.565689660837, -1.2366110871318 44.566336598465, -1.2358317660528 44.566949044165, -1.2357073591908 44.56699614666, -1.2352794499917 44.567191399563, -1.2339790556937 44.567502909411, -1.2328013878265 44.568009682657, -1.2326184059077 44.568088326197, -1.2325395453296 44.568138516584, -1.2317719835314 44.5686550789, -1.2315003161876 44.568995911719, -1.2313643449597 44.56916408001, -1.2312934492021 44.569324825469, -1.2311566875941 44.569646160252, -1.2310893458137 44.569803191993, -1.2308440735454 44.57089089891, -1.2308292875648 44.571021077721, -1.2308042044736 44.571251568563, -1.2307337955574 44.571420405879, -1.230593031054 44.571758979499, -1.2305206506929 44.571936886089, -1.2302908474312 44.57230344244, -1.2302346676292 44.572395267251, -1.2295207092192 44.573048878772, -1.229312796267 44.573277827471, -1.2292265892189 44.573373284584, -1.2291061006225 44.573713930031, -1.2289430771629 44.573976619623, -1.2288913799421 44.574059296391, -1.2274560245048 44.575224393498, -1.2269674253592 44.575688138373, -1.2262846123283 44.576836220379, -1.2254676985201 44.577851521029, -1.2252967131485 44.578128863972, -1.2251173387814 44.578267738127, -1.2250613524296 44.578404595402, -1.2240554297807 44.579608601535, -1.2235381812726 44.580391208629, -1.2232412339962 44.58079495672, -1.2231381440158 44.580944980351, -1.2230084597637 44.581134562008, -1.2223871523132 44.58209333996, -1.2219820060282 44.582646363808, -1.2211605721835 44.583797791994, -1.2209292565393 44.584120231197, -1.2206512996968 44.584713458694, -1.2197572770098 44.58649949798, -1.2190216635801 44.58800858543, -1.2185423765091 44.588712520076, -1.2182728157029 44.589111802824, -1.2171170344346 44.59094913704, -1.2166609929546 44.591683872988, -1.2166022568751 44.591775768241, -1.2161449986324 44.592511439929, -1.2157999190987 44.593017541302, -1.2155125692498 44.593477719872, -1.2153921734176 44.593571516794, -1.2149907481574 44.594167634165, -1.2140561548013 44.595558504123, -1.2139993300483 44.595640429707, -1.2138777579066 44.595902714597, -1.2136949228943 44.596256970581, -1.213436438096 44.596694632681, -1.2130365910447 44.597338436173, -1.2128031836021 44.598066288108, -1.2126355505292 44.598526369833, -1.212289508068 44.599309939722, -1.2116009434313 44.601457994345, -1.2431879350329 44.629133841508, -1.2431883068137 44.628912227002, -1.2434385503579 44.628381971547, -1.2436882476666 44.627946318978, -1.2439387044392 44.627461096661, -1.2441724038487 44.626928650719, -1.2443550321325 44.626448238031, -1.2444219867205 44.625829090432, -1.2446061315656 44.625208100865, -1.2447869553587 44.624863767925, -1.2447886831152 44.624561036304, -1.2446049540774 44.62411273182, -1.2445550671554 44.623811604892, -1.2445557625658 44.623595384723, -1.2446727691201 44.623362936692, -1.2455375490085 44.622362250806, -1.2465723488779 44.621295912548, -1.2476211620576 44.620108416173, -1.2482384459769 44.619414483303, -1.2486714929747 44.619111837318, -1.2489050589844 44.618929805271, -1.2494048160092 44.618976403611, -1.2496547189126 44.618979432516, -1.2499544972456 44.618745790791, -1.2502047072763 44.618629899152, -1.2506384634992 44.618710977446, -1.2509369722086 44.618745820423, -1.2511221656659 44.618659877693, -1.2515046866803 44.618129082027, -1.2516219415297 44.617963279183, -1.2518722671394 44.617911339198, -1.2526713191161 44.618129664995, -1.253105116088 44.618397205174, -1.2531534721339 44.618528120462, -1.2529213804113 44.618878571381, -1.252787510497 44.619143984944, -1.2528550961043 44.619362582632, -1.253221301956 44.61959709655, -1.2533373517758 44.619679959378, -1.2534736168062 44.619845969429, -1.2540223048812 44.619846882075, -1.2548872246181 44.620028007503, -1.255372317381 44.620247096859, -1.2560051160826 44.620592198033, -1.2563715527829 44.620995151191, -1.2568552781738 44.621748471772, -1.2574210020941 44.622481215268, -1.2578369502556 44.623280787816, -1.2581552435106 44.623844685783, -1.2586375391361 44.624429588312, -1.2592543649093 44.624945429332, -1.2598225015023 44.625345679072, -1.2602557748673 44.625912287651, -1.2606720349638 44.62679832133, -1.2610545681149 44.627627753617, -1.2613541577125 44.628544453809, -1.2613554074523 44.629429934293, -1.2613968799047 44.629674566512, -1.2772143012535 44.629205564803)))