MULTIPOLYGON(((-4.2416279483836 48.292748477566, -4.2458239877463 48.298534206206, -4.2440781299618 48.293906196876, -4.2461790408828 48.292631060235, -4.2538703370971 48.302696191786, -4.283429161785 48.306072373576, -4.2902937107687 48.308862583022, -4.2854398353015 48.309334515299, -4.2937450124322 48.308605263912, -4.3220214293694 48.315409065629, -4.338336252007 48.311693350541, -4.353800673176 48.286099366137, -4.3209191399608 48.292626811872, -4.3029981937701 48.299917431285, -4.2877851335266 48.298247720336, -4.276671789718 48.300511305145, -4.2656208825035 48.295710545254, -4.2416279483836 48.292748477566)), ((-4.5541454246462 48.300195535768, -4.545748379584 48.293111179252, -4.5303413212241 48.291713385226, -4.50617956324 48.312084962927, -4.4996128770208 48.311362477682, -4.4953610380501 48.309653491323, -4.4957082993841 48.307502202569, -4.4997614801568 48.31042429549, -4.5012194154261 48.305891269173, -4.4974324001176 48.304795334124, -4.50182131811 48.305385768762, -4.5132880900079 48.292635466879, -4.5028737896621 48.287349553141, -4.5021525311171 48.283361020321, -4.471525976468 48.288071648627, -4.4606726048428 48.295759003523, -4.446821112443 48.291800448762, -4.4287528329584 48.291743379698, -4.4175054865454 48.295302076064, -4.4183671896167 48.285092371371, -4.4074138054474 48.276983320633, -4.3823192106112 48.276222631017, -4.3665496650303 48.278860605924, -4.3538003911459 48.286099672886, -4.338336252007 48.311693350541, -4.3404391608668 48.313004109424, -4.3264339904824 48.325519678201, -4.3265841227691 48.328018322414, -4.3366370114477 48.330952704959, -4.323130977591 48.333854333, -4.3328381556829 48.333201224066, -4.3291841403328 48.337606674737, -4.3557076993853 48.342360914128, -4.3664274847347 48.340158565454, -4.3700587151174 48.330402024159, -4.3660946926698 48.328384556707, -4.3693523757778 48.324986477711, -4.4185437810791 48.324323312508, -4.4099403388723 48.334027410208, -4.4129860722849 48.33599993657, -4.4451036520887 48.32565151247, -4.4598106429737 48.326538057209, -4.4506625634191 48.33087804858, -4.4511310674237 48.336647096592, -4.4424455075096 48.34175028664, -4.4476276683284 48.348744701549, -4.4375392349526 48.356989518647, -4.4387299638394 48.36051109943, -4.4177685313425 48.370788643287, -4.4100679979218 48.382112314155, -4.3985921605227 48.385954112642, -4.4056453606294 48.38896676183, -4.5344192050025 48.356536833588, -4.5517330354043 48.358889202898, -4.558568289218 48.353807385614, -4.5542678676906 48.33877078294, -4.5335071655515 48.342345791406, -4.5317760543961 48.338969610922, -4.5323538994843 48.334386229694, -4.5343938579126 48.336438078435, -4.5434472197431 48.324776728748, -4.5459351072831 48.309826865282, -4.5541454246462 48.300195535768), (-4.5362344584519 48.304641019395, -4.5278840848865 48.305301197558, -4.529723567772 48.301738154417, -4.5388234048258 48.301570367188, -4.5362344584519 48.304641019395), (-4.3570211634909 48.329202485061, -4.3540225258395 48.3310871369, -4.3570211634909 48.329202485061), (-4.4608864799192 48.323753783151, -4.4641101083767 48.324235989519, -4.4608864799192 48.323753783151), (-4.5253743328174 48.299639547559, -4.5280713629217 48.300612976825, -4.5251101270297 48.301904283217, -4.5253743328174 48.299639547559), (-4.3618222714014 48.327465802107, -4.3618222714014 48.327465802107), (-4.368011166858 48.294655806285, -4.368011166858 48.294655806285), (-4.3707313168855 48.294210104599, -4.3707313168855 48.294210104599), (-4.5465840299881 48.295922009043, -4.5465840299881 48.295922009043), (-4.3567850517214 48.327451697176, -4.3567850517214 48.327451697176), (-4.5074576798278 48.312960402164, -4.5074576798278 48.312960402164), (-4.3639339903168 48.313341047933, -4.3639339903168 48.313341047933), (-4.3540474280509 48.323789783123, -4.3540474280509 48.323789783123), (-4.3556204631755 48.32307867338, -4.3556204631755 48.32307867338), (-4.3543840182155 48.3269943147, -4.3543840182155 48.3269943147), (-4.363094563997 48.311826765246, -4.363094563997 48.311826765246), (-4.3520366449354 48.312525299086, -4.3520366449354 48.312525299086), (-4.3449884088627 48.309968265446, -4.3449884088627 48.309968265446), (-4.3627343585996 48.32214001938, -4.3627343585996 48.32214001938), (-4.352422786529 48.311199154549, -4.352422786529 48.311199154549), (-4.3707114010133 48.294977250257, -4.3707114010133 48.294977250257), (-4.5471533657082 48.295498982736, -4.5471533657082 48.295498982736), (-4.3579879203413 48.322584609824, -4.3579879203413 48.322584609824), (-4.3809719085753 48.292610213558, -4.3809719085753 48.292610213558), (-4.3732646327312 48.32446844872, -4.3732646327312 48.32446844872), (-4.529880938846 48.343051077939, -4.529880938846 48.343051077939), (-4.3411405251209 48.339332008822, -4.3411405251209 48.339332008822), (-4.3716092430452 48.325391041144, -4.3716092430452 48.325391041144), (-4.3426260617237 48.338870577531, -4.3426260617237 48.338870577531), (-4.3418180897178 48.339041785237, -4.3418180897178 48.339041785237), (-4.3503495171025 48.342279897786, -4.3503495171025 48.342279897786), (-4.4547651570522 48.322332735066, -4.4547651570522 48.322332735066), (-4.4537096654478 48.322468096736, -4.4537096654478 48.322468096736)))